HAWK-2B                 
1 47508U 21006CZ  26068.67629241  .00009474  00000+0  29651-3 0  9991
2 47508  97.2334 114.1140 0007102 185.9063 174.2098 15.33301353284246
STARLINK-34403          
1 64443U 25130F   26068.47634522  .00022848  00000+0  78102-3 0  9991
2 64443  53.1588  89.2962 0000846  88.1397 271.9700 15.30206311 40678
